FENGYUN 1C DEB          
1 35137U 99025DLR 17344.45025729  .00001325  00000-0  47730-3 0  9992
2 35137  99.0908  60.9944 0245705 329.0085  89.4215 14.20165719272116
